[{"OBJECT_NAME":"STARLINK-6178","OBJECT_ID":"2023-061P","EPOCH":"2026-03-09T22:00:01.999584","MEAN_MOTION":15.117437,"ECCENTRICITY":0.00016359,"INCLINATION":43.0005,"RA_OF_ASC_NODE":195.5801,"ARG_OF_PERICENTER":301.8014,"MEAN_ANOMALY":159.6262,"EPHEMERIS_TYPE":0,"CLASSIFICATION_TYPE":"U","NORAD_CAT_ID":56387,"ELEMENT_SET_NO":999,"REV_AT_EPOCH":578,"BSTAR":0.072717287,"MEAN_MOTION_DOT":0.0137484,"MEAN_MOTION_DDOT":0},{"OBJECT_NAME":"KUIPER-00177","OBJECT_ID":"2026-030C","EPOCH":"2026-03-09T22:40:13.687104","MEAN_MOTION":15.35467467,"ECCENTRICITY":0.00021592,"INCLINATION":51.8837,"RA_OF_ASC_NODE":217.7875,"ARG_OF_PERICENTER":172.5497,"MEAN_ANOMALY":187.5522,"EPHEMERIS_TYPE":0,"CLASSIFICATION_TYPE":"U","NORAD_CAT_ID":67766,"ELEMENT_SET_NO":999,"REV_AT_EPOCH":513,"BSTAR":-0.015747205,"MEAN_MOTION_DOT":-0.00515419,"MEAN_MOTION_DDOT":0}]
